[{"OBJECT_NAME":"STARLINK-6144","OBJECT_ID":"2023-083U","EPOCH":"2026-03-09T08:42:20.615904","MEAN_MOTION":15.02523379,"ECCENTRICITY":0.00014695,"INCLINATION":43.0031,"RA_OF_ASC_NODE":83.3416,"ARG_OF_PERICENTER":275.7731,"MEAN_ANOMALY":84.2944,"EPHEMERIS_TYPE":0,"CLASSIFICATION_TYPE":"U","NORAD_CAT_ID":56894,"ELEMENT_SET_NO":999,"REV_AT_EPOCH":15174,"BSTAR":-0.00013382279,"MEAN_MOTION_DOT":-2.01e-5,"MEAN_MOTION_DDOT":0},{"OBJECT_NAME":"THE ARAB SATELLITE 813","OBJECT_ID":"2025-292B","EPOCH":"2026-03-09T21:37:26.354208","MEAN_MOTION":15.05594469,"ECCENTRICITY":0.00142186,"INCLINATION":97.6379,"RA_OF_ASC_NODE":145.6178,"ARG_OF_PERICENTER":341.4344,"MEAN_ANOMALY":18.6363,"EPHEMERIS_TYPE":0,"CLASSIFICATION_TYPE":"U","NORAD_CAT_ID":66994,"ELEMENT_SET_NO":999,"REV_AT_EPOCH":1350,"BSTAR":0.00043840303,"MEAN_MOTION_DOT":6.274e-5,"MEAN_MOTION_DDOT":0}]
